[{"OBJECT_NAME":"STARLINK-35012","OBJECT_ID":"2025-191F","EPOCH":"2026-03-09T12:45:48.953376","MEAN_MOTION":15.05651084,"ECCENTRICITY":0.00022421,"INCLINATION":97.6033,"RA_OF_ASC_NODE":301.3369,"ARG_OF_PERICENTER":100.1247,"MEAN_ANOMALY":260.0232,"EPHEMERIS_TYPE":0,"CLASSIFICATION_TYPE":"U","NORAD_CAT_ID":65384,"ELEMENT_SET_NO":999,"REV_AT_EPOCH":3024,"BSTAR":0.00037638872,"MEAN_MOTION_DOT":5.375e-5,"MEAN_MOTION_DDOT":0},{"OBJECT_NAME":"PSLV DEB","OBJECT_ID":"2001-049NA","EPOCH":"2026-03-08T15:04:56.759808","MEAN_MOTION":15.08740413,"ECCENTRICITY":0.00254054,"INCLINATION":98.314,"RA_OF_ASC_NODE":131.3874,"ARG_OF_PERICENTER":357.4644,"MEAN_ANOMALY":2.6449,"EPHEMERIS_TYPE":0,"CLASSIFICATION_TYPE":"U","NORAD_CAT_ID":27582,"ELEMENT_SET_NO":999,"REV_AT_EPOCH":27774,"BSTAR":0.00086862236,"MEAN_MOTION_DOT":0.0001368,"MEAN_MOTION_DDOT":0}]
